[{"OBJECT_NAME":"YUNHAI-2 02C","OBJECT_ID":"2024-052C","EPOCH":"2026-03-09T21:21:30.207744","MEAN_MOTION":14.27924657,"ECCENTRICITY":0.00066764,"INCLINATION":50.0079,"RA_OF_ASC_NODE":203.2069,"ARG_OF_PERICENTER":173.1854,"MEAN_ANOMALY":186.9153,"EPHEMERIS_TYPE":0,"CLASSIFICATION_TYPE":"U","NORAD_CAT_ID":59282,"ELEMENT_SET_NO":999,"REV_AT_EPOCH":10061,"BSTAR":0.00014036663,"MEAN_MOTION_DOT":1.89e-6,"MEAN_MOTION_DDOT":0},{"OBJECT_NAME":"FENGYUN 1C DEB","OBJECT_ID":"1999-025AZU","EPOCH":"2026-03-09T13:50:17.763936","MEAN_MOTION":14.37639502,"ECCENTRICITY":0.0107759,"INCLINATION":98.2066,"RA_OF_ASC_NODE":97.9918,"ARG_OF_PERICENTER":204.6718,"MEAN_ANOMALY":310.1174,"EPHEMERIS_TYPE":0,"CLASSIFICATION_TYPE":"U","NORAD_CAT_ID":30930,"ELEMENT_SET_NO":999,"REV_AT_EPOCH":99579,"BSTAR":0.00038252,"MEAN_MOTION_DOT":1.185e-5,"MEAN_MOTION_DDOT":0}]
